ONEWEB-0228             
1 48780U 21045P   23252.58724487  .00000067  00000+0  14431-3 0  9996
2 48780  87.8947 100.6186 0001803  87.3952 272.7384 13.15551590111326
